{"type": "FeatureCollection", "crs": {"type": "name", "properties": {"name": "urn:ogc:def:crs:OGC:1.3:CRS84"}}, "features": [{"type": "Feature", "properties": {"구분": "자치구", "자치구": "강남구"}, "geometry": {"type": "Polygon", "coordinates": [[[127.058661, 37.526296], [127.069039, 37.522281], [127.068624, 37.518135], [127.069288, 37.517148], [127.071945, 37.502209], [127.076511, 37.498589], [127.080496, 37.4978], [127.098844, 37.492995], [127.104323, 37.490758], [127.10781, 37.488586], [127.111131, 37.48569], [127.114369, 37.480755], [127.113788, 37.479636], [127.122671, 37.467592], [127.124415, 37.464433], [127.124415, 37.462393], [127.1196, 37.459366], [127.118852, 37.455812], [127.115365, 37.457194], [127.11412, 37.458774], [127.108392, 37.459695], [127.105652, 37.456799], [127.100338, 37.45601], [127.098429, 37.458642], [127.097101, 37.460814], [127.090376, 37.465486], [127.08664, 37.470093], [127.086391, 37.472726], [127.080247, 37.472002], [127.076013, 37.470027], [127.074767, 37.472002], [127.072277, 37.472331], [127.071364, 37.47108], [127.064639, 37.470027], [127.063725, 37.466145], [127.058827, 37.465618], [127.055921, 37.465947], [127.047121, 37.474503], [127.043468, 37.482795], [127.036245, 37.481742], [127.033754, 37.486743], [127.022629, 37.509975], [127.020388, 37.51774], [127.019142, 37.52011], [127.013995, 37.525045], [127.023044, 37.53235], [127.026946, 37.534851], [127.031928, 37.536036], [127.048034, 37.529718], [127.04903, 37.531429], [127.051189, 37.529718], [127.058661, 37.526296]]]}}, {"type": "Feature", "properties": {"구분": "자치구", "자치구": "강동구"}, "geometry": {"type": "Polygon", "coordinates": [[[127.115199, 37.557556], [127.118769, 37.557227], [127.121509, 37.559859], [127.124332, 37.561439], [127.135955, 37.565651], [127.149322, 37.568941], [127.155133, 37.570916], [127.166839, 37.576707], [127.170409, 37.576444], [127.176055, 37.576773], [127.179044, 37.577892], [127.177466, 37.574469], [127.178213, 37.571508], [127.179957, 37.569336], [127.181202, 37.566375], [127.1817, 37.562887], [127.184108, 37.558148], [127.183527, 37.550054], [127.18527, 37.548869], [127.184772, 37.545315], [127.185436, 37.542617], [127.18361, 37.54242], [127.181202, 37.543867], [127.177715, 37.54242], [127.174477, 37.542749], [127.168334, 37.541432], [127.165345, 37.542222], [127.155631, 37.531166], [127.155382, 37.526559], [127.151563, 37.522808], [127.14982, 37.519254], [127.14791, 37.519188], [127.146831, 37.516622], [127.146748, 37.514187], [127.145337, 37.514647], [127.12126, 37.525309], [127.122505, 37.527546], [127.125328, 37.535707], [127.120596, 37.538142], [127.111712, 37.540643], [127.114203, 37.544723], [127.11603, 37.550514], [127.11603, 37.555779], [127.115199, 37.557556]]]}}, {"type": "Feature", "properties": {"구분": "자치구", "자치구": "강북구"}, "geometry": {"type": "Polygon", "coordinates": [[[127.010425, 37.681873], [127.010757, 37.676937], [127.013995, 37.676542], [127.015988, 37.672594], [127.018727, 37.669895], [127.020637, 37.667197], [127.017731, 37.663907], [127.017233, 37.658773], [127.015988, 37.656207], [127.014659, 37.649428], [127.015323, 37.647651], [127.017731, 37.646335], [127.022297, 37.646269], [127.026531, 37.64469], [127.02952, 37.642255], [127.034751, 37.638833], [127.036577, 37.635081], [127.039068, 37.633963], [127.040562, 37.631133], [127.043551, 37.6285], [127.050027, 37.624091], [127.052102, 37.621656], [127.048864, 37.619747], [127.046042, 37.615865], [127.041974, 37.612837], [127.038902, 37.609744], [127.032509, 37.606322], [127.03226, 37.609547], [127.028524, 37.609876], [127.024373, 37.608494], [127.021384, 37.610929], [127.016818, 37.612771], [127.012833, 37.613627], [127.010591, 37.615733], [127.009595, 37.618234], [127.01001, 37.621129], [127.002123, 37.622972], [126.998636, 37.626329], [126.996145, 37.627184], [126.995315, 37.629224], [126.993405, 37.629224], [126.987677, 37.632646], [126.986764, 37.633765], [126.988258, 37.637385], [126.985352, 37.640807], [126.987096, 37.643176], [126.985767, 37.646993], [126.983277, 37.649494], [126.981782, 37.652126], [126.982031, 37.653772], [126.987096, 37.656536], [126.990334, 37.661011], [126.994983, 37.662261], [126.995813, 37.665091], [126.996228, 37.669435], [126.995066, 37.674831], [126.993821, 37.676674], [126.995979, 37.67753], [126.999964, 37.681018], [127.005693, 37.682268], [127.010425, 37.681873]]]}}, {"type": "Feature", "properties": {"구분": "자치구", "자치구": "강서구"}, "geometry": {"type": "Polygon", "coordinates": [[[126.859822, 37.571837], [126.85949, 37.568283], [126.860486, 37.566835], [126.868374, 37.563084], [126.879997, 37.555121], [126.891869, 37.547355], [126.887386, 37.543472], [126.888216, 37.540774], [126.88722, 37.540774], [126.882819, 37.545052], [126.876095, 37.544131], [126.872774, 37.544855], [126.866381, 37.548606], [126.864305, 37.541696], [126.8658, 37.538142], [126.865468, 37.533798], [126.866132, 37.52702], [126.851022, 37.525111], [126.842554, 37.523729], [126.836576, 37.533667], [126.837157, 37.534917], [126.835248, 37.539063], [126.832508, 37.538932], [126.831927, 37.541432], [126.830183, 37.542617], [126.828938, 37.539063], [126.824206, 37.537879], [126.816734, 37.537813], [126.812499, 37.5388], [126.81142, 37.540314], [126.805442, 37.540116], [126.801872, 37.537615], [126.800876, 37.535049], [126.796891, 37.533009], [126.795812, 37.536628], [126.796974, 37.538668], [126.793902, 37.538997], [126.793819, 37.541037], [126.790747, 37.54163], [126.788838, 37.543538], [126.781947, 37.543472], [126.777547, 37.546105], [126.77323, 37.545907], [126.769743, 37.550514], [126.767003, 37.552818], [126.770739, 37.552949], [126.771486, 37.554331], [126.778792, 37.559201], [126.778875, 37.561373], [126.776717, 37.564532], [126.779872, 37.564269], [126.782528, 37.565388], [126.784687, 37.567428], [126.784023, 37.569073], [126.784936, 37.570916], [126.791744, 37.574733], [126.795397, 37.574535], [126.795231, 37.577628], [126.795895, 37.580195], [126.79797, 37.580392], [126.800876, 37.58546], [126.802869, 37.586184], [126.801291, 37.588421], [126.801457, 37.590133], [126.799631, 37.592962], [126.799133, 37.595726], [126.800461, 37.598293], [126.801956, 37.598556], [126.802703, 37.60132], [126.803948, 37.601847], [126.807601, 37.600926], [126.818145, 37.59158], [126.822545, 37.588027], [126.828938, 37.585592], [126.853014, 37.572824], [126.859822, 37.571837]]]}}, {"type": "Feature", "properties": {"구분": "자치구", "자치구": "관악구"}, "geometry": {"type": "Polygon", "coordinates": [[[126.983692, 37.473844], [126.984605, 37.469962], [126.986598, 37.466934], [126.989005, 37.465026], [126.990251, 37.462722], [126.989586, 37.457589], [126.990749, 37.455352], [126.984854, 37.453904], [126.982945, 37.450218], [126.978378, 37.447652], [126.976054, 37.444756], [126.973148, 37.44469], [126.966506, 37.442782], [126.966174, 37.439359], [126.965178, 37.438241], [126.961525, 37.437977], [126.960528, 37.436727], [126.955298, 37.436727], [126.947328, 37.434753], [126.944422, 37.434753], [126.941516, 37.433173], [126.940354, 37.434621], [126.940603, 37.437517], [126.937697, 37.440412], [126.933131, 37.442913], [126.933131, 37.445348], [126.930806, 37.447388], [126.925244, 37.4516], [126.924497, 37.453904], [126.918851, 37.454957], [126.916776, 37.454891], [126.916444, 37.458708], [126.914949, 37.461143], [126.915862, 37.462459], [126.913787, 37.463775], [126.9103, 37.46983], [126.912791, 37.470817], [126.914036, 37.474173], [126.911545, 37.475424], [126.911794, 37.478122], [126.902745, 37.476543], [126.901583, 37.47753], [126.905319, 37.482202], [126.908058, 37.482202], [126.915364, 37.484374], [126.919183, 37.486612], [126.926406, 37.487138], [126.928731, 37.49135], [126.92981, 37.492206], [126.933463, 37.490429], [126.936701, 37.490297], [126.938445, 37.489376], [126.943758, 37.489376], [126.949237, 37.491284], [126.95397, 37.489573], [126.955962, 37.488191], [126.958785, 37.488718], [126.963268, 37.49056], [126.962936, 37.48806], [126.964431, 37.48444], [126.963434, 37.480689], [126.972567, 37.472528], [126.979043, 37.473779], [126.983692, 37.473844]]]}}, {"type": "Feature", "properties": {"구분": "자치구", "자치구": "광진구"}, "geometry": {"type": "Polygon", "coordinates": [[[127.080662, 37.569073], [127.08556, 37.568546], [127.093281, 37.56677], [127.101584, 37.569731], [127.103078, 37.570784], [127.106233, 37.568152], [127.105486, 37.566835], [127.104074, 37.559596], [127.103244, 37.557227], [127.112709, 37.55703], [127.115199, 37.557556], [127.11603, 37.555779], [127.11603, 37.550514], [127.114203, 37.544723], [127.111712, 37.540643], [127.104822, 37.531232], [127.100837, 37.524848], [127.094361, 37.523992], [127.086391, 37.521623], [127.079666, 37.520768], [127.074933, 37.520899], [127.069039, 37.522281], [127.058661, 37.526296], [127.068956, 37.544328], [127.075847, 37.556635], [127.074186, 37.557227], [127.080662, 37.569073]]]}}, {"type": "Feature", "properties": {"구분": "자치구", "자치구": "구로구"}, "geometry": {"type": "Polygon", "coordinates": [[[126.826862, 37.5055], [126.831179, 37.505434], [126.834168, 37.502406], [126.838485, 37.499642], [126.84272, 37.501156], [126.842138, 37.502735], [126.846871, 37.502867], [126.847286, 37.505236], [126.850773, 37.506026], [126.852184, 37.507276], [126.855007, 37.507803], [126.857664, 37.506421], [126.860237, 37.507145], [126.86223, 37.503854], [126.864554, 37.503854], [126.865219, 37.502472], [126.867958, 37.502735], [126.871113, 37.502012], [126.874351, 37.502604], [126.875596, 37.505697], [126.880578, 37.511488], [126.881574, 37.513989], [126.892533, 37.508724], [126.895937, 37.504644], [126.895522, 37.5003], [126.895771, 37.493917], [126.898594, 37.486283], [126.902579, 37.482795], [126.905319, 37.482202], [126.901583, 37.47753], [126.901084, 37.476148], [126.896933, 37.475687], [126.891205, 37.476806], [126.88805, 37.479767], [126.882736, 37.48319], [126.880827, 37.483782], [126.876842, 37.482597], [126.879249, 37.485164], [126.878087, 37.486217], [126.875015, 37.485559], [126.875015, 37.487204], [126.869868, 37.490955], [126.866879, 37.48852], [126.863309, 37.487007], [126.859822, 37.483124], [126.857165, 37.4824], [126.855837, 37.480096], [126.854011, 37.478846], [126.849112, 37.479241], [126.848033, 37.478188], [126.847618, 37.471475], [126.841557, 37.472923], [126.837572, 37.472528], [126.833919, 37.474766], [126.831345, 37.47345], [126.826613, 37.473647], [126.824206, 37.472923], [126.821798, 37.475161], [126.822047, 37.478912], [126.821383, 37.481347], [126.822047, 37.482992], [126.825617, 37.484966], [126.824787, 37.487204], [126.819971, 37.488784], [126.816484, 37.490429], [126.814824, 37.49339], [126.815156, 37.495233], [126.81773, 37.494772], [126.820802, 37.495957], [126.822047, 37.498524], [126.823707, 37.499247], [126.825036, 37.502999], [126.824704, 37.504973], [126.826862, 37.5055]]]}}, {"type": "Feature", "properties": {"구분": "자치구", "자치구": "금천구"}, "geometry": {"type": "Polygon", "coordinates": [[[126.901583, 37.47753], [126.902745, 37.476543], [126.911794, 37.478122], [126.911545, 37.475424], [126.914036, 37.474173], [126.912791, 37.470817], [126.9103, 37.46983], [126.913787, 37.463775], [126.915862, 37.462459], [126.914949, 37.461143], [126.916444, 37.458708], [126.916776, 37.454891], [126.918851, 37.454957], [126.924497, 37.453904], [126.925244, 37.4516], [126.930806, 37.447388], [126.925576, 37.443769], [126.923168, 37.441334], [126.922006, 37.438504], [126.920014, 37.437056], [126.916444, 37.437254], [126.913455, 37.434753], [126.910798, 37.431001], [126.904903, 37.431331], [126.90482, 37.433107], [126.901499, 37.435345], [126.900835, 37.43653], [126.901084, 37.440281], [126.900337, 37.44186], [126.89768, 37.442913], [126.898096, 37.44548], [126.896186, 37.449823], [126.894692, 37.449099], [126.891537, 37.449955], [126.891122, 37.45239], [126.888299, 37.453575], [126.888299, 37.456602], [126.890707, 37.459695], [126.881989, 37.469962], [126.878751, 37.474766], [126.875513, 37.481873], [126.876842, 37.482597], [126.880827, 37.483782], [126.882736, 37.48319], [126.88805, 37.479767], [126.891205, 37.476806], [126.896933, 37.475687], [126.901084, 37.476148], [126.901583, 37.47753]]]}}, {"type": "Feature", "properties": {"구분": "자치구", "자치구": "노원구"}, "geometry": {"type": "Polygon", "coordinates": [[[127.10781, 37.618036], [127.103659, 37.616983], [127.101916, 37.615338], [127.098263, 37.614285], [127.091289, 37.617049], [127.087968, 37.617444], [127.083236, 37.616259], [127.073522, 37.612837], [127.070118, 37.612771], [127.067295, 37.611389], [127.064141, 37.611587], [127.056336, 37.617378], [127.052102, 37.621656], [127.050027, 37.624091], [127.043551, 37.6285], [127.046042, 37.630672], [127.047121, 37.634094], [127.052268, 37.641992], [127.057084, 37.637977], [127.057997, 37.643176], [127.056419, 37.648112], [127.05617, 37.652982], [127.05368, 37.657786], [127.053431, 37.660879], [127.05094, 37.666276], [127.051272, 37.670356], [127.0526, 37.674634], [127.054012, 37.682005], [127.05285, 37.684242], [127.056752, 37.68648], [127.05891, 37.686809], [127.063642, 37.686019], [127.067212, 37.687072], [127.07153, 37.691613], [127.075017, 37.691679], [127.079417, 37.693587], [127.0839, 37.693587], [127.086391, 37.691218], [127.088383, 37.687533], [127.097101, 37.686414], [127.098429, 37.682926], [127.094776, 37.67878], [127.093946, 37.676411], [127.095689, 37.673844], [127.096602, 37.670751], [127.097682, 37.670027], [127.098014, 37.66746], [127.096187, 37.663512], [127.098429, 37.659102], [127.097848, 37.656733], [127.088466, 37.652719], [127.094942, 37.652061], [127.096187, 37.650021], [127.094444, 37.647125], [127.096851, 37.642781], [127.100255, 37.642321], [127.102663, 37.642913], [127.110135, 37.64186], [127.114037, 37.637451], [127.114535, 37.632449], [127.113124, 37.627776], [127.107395, 37.624091], [127.107395, 37.622446], [127.105652, 37.620142], [127.10781, 37.618036]]]}}, {"type": "Feature", "properties": {"구분": "자치구", "자치구": "도봉구"}, "geometry": {"type": "Polygon", "coordinates": [[[127.05285, 37.684242], [127.054012, 37.682005], [127.0526, 37.674634], [127.051272, 37.670356], [127.05094, 37.666276], [127.053431, 37.660879], [127.05368, 37.657786], [127.05617, 37.652982], [127.056419, 37.648112], [127.057997, 37.643176], [127.057084, 37.637977], [127.052268, 37.641992], [127.047121, 37.634094], [127.046042, 37.630672], [127.043551, 37.6285], [127.040562, 37.631133], [127.039068, 37.633963], [127.036577, 37.635081], [127.034751, 37.638833], [127.02952, 37.642255], [127.026531, 37.64469], [127.022297, 37.646269], [127.017731, 37.646335], [127.015323, 37.647651], [127.014659, 37.649428], [127.015988, 37.656207], [127.017233, 37.658773], [127.017731, 37.663907], [127.020637, 37.667197], [127.018727, 37.669895], [127.015988, 37.672594], [127.013995, 37.676542], [127.010757, 37.676937], [127.010425, 37.681873], [127.011006, 37.684374], [127.010176, 37.686348], [127.011006, 37.691942], [127.014078, 37.69543], [127.016486, 37.695496], [127.018063, 37.69826], [127.021467, 37.698589], [127.024207, 37.696812], [127.02703, 37.696681], [127.030184, 37.697799], [127.031347, 37.69622], [127.031845, 37.69339], [127.033256, 37.690099], [127.034502, 37.688981], [127.037905, 37.689441], [127.0438, 37.692534], [127.045128, 37.690955], [127.047702, 37.689639], [127.051106, 37.691152], [127.05285, 37.684242]]]}}, {"type": "Feature", "properties": {"구분": "자치구", "자치구": "동대문구"}, "geometry": {"type": "Polygon", "coordinates": [[[127.025286, 37.575259], [127.031181, 37.579603], [127.038487, 37.587105], [127.041143, 37.588487], [127.042721, 37.59237], [127.046125, 37.593489], [127.049778, 37.593489], [127.052351, 37.598293], [127.054178, 37.597174], [127.059491, 37.598754], [127.061235, 37.598227], [127.064224, 37.602373], [127.067544, 37.602702], [127.070865, 37.604084], [127.070699, 37.606519], [127.072609, 37.606519], [127.073854, 37.604019], [127.07485, 37.600004], [127.074601, 37.598293], [127.072194, 37.595397], [127.07153, 37.593423], [127.073273, 37.585921], [127.079085, 37.57855], [127.08033, 37.575193], [127.080662, 37.569073], [127.074186, 37.557227], [127.072858, 37.557753], [127.061484, 37.559399], [127.060322, 37.559925], [127.050027, 37.567559], [127.044298, 37.570192], [127.040064, 37.570126], [127.034834, 37.567559], [127.031845, 37.567099], [127.025452, 37.568941], [127.025286, 37.575259]]]}}, {"type": "Feature", "properties": {"구분": "자치구", "자치구": "동작구"}, "geometry": {"type": "Polygon", "coordinates": [[[126.982197, 37.509317], [126.982446, 37.501222], [126.983277, 37.499511], [126.987179, 37.497207], [126.98502, 37.493588], [126.983692, 37.473844], [126.979043, 37.473779], [126.972567, 37.472528], [126.963434, 37.480689], [126.964431, 37.48444], [126.962936, 37.48806], [126.963268, 37.49056], [126.958785, 37.488718], [126.955962, 37.488191], [126.95397, 37.489573], [126.949237, 37.491284], [126.943758, 37.489376], [126.938445, 37.489376], [126.936701, 37.490297], [126.933463, 37.490429], [126.92981, 37.492206], [126.928731, 37.49135], [126.926406, 37.487138], [126.919183, 37.486612], [126.915364, 37.484374], [126.908058, 37.482202], [126.905319, 37.482202], [126.914617, 37.493588], [126.921757, 37.494904], [126.923251, 37.499247], [126.927486, 37.509843], [126.929229, 37.510172], [126.928067, 37.513265], [126.934542, 37.51287], [126.94409, 37.514647], [126.952475, 37.517214], [126.955547, 37.514713], [126.959532, 37.512476], [126.966672, 37.509975], [126.982197, 37.509317]]]}}, {"type": "Feature", "properties": {"구분": "자치구", "자치구": "마포구"}, "geometry": {"type": "Polygon", "coordinates": [[[126.905236, 37.574075], [126.903741, 37.572693], [126.906896, 37.570587], [126.921923, 37.56394], [126.927818, 37.562492], [126.930308, 37.560518], [126.928814, 37.558214], [126.928731, 37.556042], [126.938943, 37.552291], [126.943177, 37.553673], [126.9592, 37.55466], [126.960778, 37.553871], [126.9636, 37.556042], [126.965178, 37.553607], [126.963766, 37.552554], [126.964514, 37.548672], [126.966008, 37.546895], [126.964015, 37.545842], [126.962272, 37.543538], [126.960612, 37.542683], [126.959283, 37.538997], [126.953389, 37.533469], [126.947162, 37.532153], [126.945667, 37.526625], [126.936784, 37.533469], [126.931305, 37.534127], [126.908307, 37.539195], [126.902828, 37.541367], [126.891869, 37.547355], [126.879997, 37.555121], [126.868374, 37.563084], [126.860486, 37.566835], [126.85949, 37.568283], [126.859822, 37.571837], [126.859905, 37.572824], [126.863807, 37.573087], [126.865634, 37.573877], [126.867626, 37.572693], [126.870117, 37.574601], [126.872857, 37.57493], [126.878004, 37.576773], [126.879166, 37.579669], [126.878751, 37.581314], [126.881076, 37.583815], [126.882404, 37.586842], [126.884314, 37.588158], [126.891537, 37.582038], [126.895356, 37.579405], [126.897348, 37.578681], [126.900254, 37.575522], [126.903741, 37.573153], [126.905236, 37.574075]]]}}, {"type": "Feature", "properties": {"구분": "자치구", "자치구": "서대문구"}, "geometry": {"type": "Polygon", "coordinates": [[[126.952475, 37.605072], [126.9548, 37.603821], [126.95563, 37.601847], [126.954883, 37.597635], [126.956211, 37.595726], [126.959283, 37.595463], [126.958453, 37.59237], [126.960445, 37.588685], [126.960528, 37.587171], [126.958785, 37.581906], [126.961774, 37.579669], [126.957872, 37.577957], [126.95563, 37.576049], [126.968748, 37.56315], [126.971654, 37.559201], [126.968997, 37.558477], [126.965676, 37.556503], [126.9636, 37.556042], [126.960778, 37.553871], [126.9592, 37.55466], [126.943177, 37.553673], [126.938943, 37.552291], [126.928731, 37.556042], [126.928814, 37.558214], [126.930308, 37.560518], [126.927818, 37.562492], [126.921923, 37.56394], [126.906896, 37.570587], [126.903741, 37.572693], [126.905236, 37.574075], [126.914617, 37.583222], [126.91827, 37.582762], [126.917938, 37.580327], [126.924414, 37.581248], [126.925991, 37.584407], [126.92815, 37.584407], [126.930225, 37.585592], [126.929976, 37.587697], [126.931056, 37.590001], [126.935788, 37.59362], [126.942762, 37.595858], [126.943592, 37.600333], [126.944505, 37.602044], [126.946996, 37.602044], [126.949237, 37.605072], [126.952475, 37.605072]]]}}, {"type": "Feature", "properties": {"구분": "자치구", "자치구": "서초구"}, "geometry": {"type": "Polygon", "coordinates": [[[127.013995, 37.525045], [127.019142, 37.52011], [127.020388, 37.51774], [127.022629, 37.509975], [127.033754, 37.486743], [127.036245, 37.481742], [127.043468, 37.482795], [127.047121, 37.474503], [127.055921, 37.465947], [127.058827, 37.465618], [127.063725, 37.466145], [127.064639, 37.470027], [127.071364, 37.47108], [127.072277, 37.472331], [127.074767, 37.472002], [127.076013, 37.470027], [127.080247, 37.472002], [127.086391, 37.472726], [127.08664, 37.470093], [127.090376, 37.465486], [127.097101, 37.460814], [127.098429, 37.458642], [127.096768, 37.455944], [127.097184, 37.453772], [127.095772, 37.453311], [127.094693, 37.450876], [127.092949, 37.450021], [127.090459, 37.446401], [127.090459, 37.442979], [127.086225, 37.441202], [127.084398, 37.438372], [127.076843, 37.439623], [127.073771, 37.438965], [127.074103, 37.437188], [127.076677, 37.436003], [127.076013, 37.434292], [127.073605, 37.433173], [127.072692, 37.429422], [127.073356, 37.428172], [127.068873, 37.427316], [127.067794, 37.426197], [127.063144, 37.427316], [127.059989, 37.427316], [127.054261, 37.425737], [127.051936, 37.427513], [127.049612, 37.42804], [127.048532, 37.430672], [127.041891, 37.435674], [127.037988, 37.436332], [127.03749, 37.438372], [127.040313, 37.441926], [127.039566, 37.443571], [127.039898, 37.446533], [127.038238, 37.44877], [127.039151, 37.451798], [127.038819, 37.453838], [127.036992, 37.455352], [127.035747, 37.458642], [127.036826, 37.461011], [127.033339, 37.462986], [127.028192, 37.455681], [127.022629, 37.453377], [127.018312, 37.452587], [127.013165, 37.452587], [127.011089, 37.454562], [127.008349, 37.459366], [127.007353, 37.459827], [127.005527, 37.464433], [127.000047, 37.464565], [126.998387, 37.463907], [126.9993, 37.461143], [126.998968, 37.459366], [126.995315, 37.458576], [126.990749, 37.455352], [126.989586, 37.457589], [126.990251, 37.462722], [126.989005, 37.465026], [126.986598, 37.466934], [126.984605, 37.469962], [126.983692, 37.473844], [126.98502, 37.493588], [126.987179, 37.497207], [126.983277, 37.499511], [126.982446, 37.501222], [126.982197, 37.509317], [126.984605, 37.510699], [126.989503, 37.510896], [126.991496, 37.509909], [127.00013, 37.513923], [127.005859, 37.516885], [127.008183, 37.518793], [127.010259, 37.522018], [127.013995, 37.525045]]]}}, {"type": "Feature", "properties": {"구분": "자치구", "자치구": "성동구"}, "geometry": {"type": "Polygon", "coordinates": [[[127.025452, 37.568941], [127.031845, 37.567099], [127.034834, 37.567559], [127.040064, 37.570126], [127.044298, 37.570192], [127.050027, 37.567559], [127.060322, 37.559925], [127.061484, 37.559399], [127.072858, 37.557753], [127.074186, 37.557227], [127.075847, 37.556635], [127.068956, 37.544328], [127.058661, 37.526296], [127.051189, 37.529718], [127.04903, 37.531429], [127.048034, 37.529718], [127.031928, 37.536036], [127.026946, 37.534851], [127.023044, 37.53235], [127.016901, 37.536102], [127.011587, 37.53676], [127.010425, 37.539063], [127.010674, 37.541169], [127.011753, 37.545249], [127.013746, 37.54571], [127.018893, 37.55058], [127.019557, 37.553213], [127.021716, 37.554726], [127.024954, 37.555055], [127.025784, 37.558346], [127.028358, 37.560188], [127.028773, 37.562163], [127.025701, 37.56236], [127.025452, 37.568941]]]}}, {"type": "Feature", "properties": {"구분": "자치구", "자치구": "성북구"}, "geometry": {"type": "Polygon", "coordinates": [[[126.977216, 37.628566], [126.979375, 37.630738], [126.983609, 37.631922], [126.986764, 37.633765], [126.987677, 37.632646], [126.993405, 37.629224], [126.995315, 37.629224], [126.996145, 37.627184], [126.998636, 37.626329], [127.002123, 37.622972], [127.01001, 37.621129], [127.009595, 37.618234], [127.010591, 37.615733], [127.012833, 37.613627], [127.016818, 37.612771], [127.021384, 37.610929], [127.024373, 37.608494], [127.028524, 37.609876], [127.03226, 37.609547], [127.032509, 37.606322], [127.038902, 37.609744], [127.041974, 37.612837], [127.046042, 37.615865], [127.048864, 37.619747], [127.052102, 37.621656], [127.056336, 37.617378], [127.064141, 37.611587], [127.067295, 37.611389], [127.070118, 37.612771], [127.073522, 37.612837], [127.073854, 37.604019], [127.072609, 37.606519], [127.070699, 37.606519], [127.070865, 37.604084], [127.067544, 37.602702], [127.064224, 37.602373], [127.061235, 37.598227], [127.059491, 37.598754], [127.054178, 37.597174], [127.052351, 37.598293], [127.049778, 37.593489], [127.046125, 37.593489], [127.042721, 37.59237], [127.041143, 37.588487], [127.038487, 37.587105], [127.031181, 37.579603], [127.025286, 37.575259], [127.023958, 37.576049], [127.020388, 37.575786], [127.018478, 37.579076], [127.016818, 37.579405], [127.010923, 37.577628], [127.00918, 37.579274], [127.008931, 37.582498], [127.008017, 37.584144], [127.00453, 37.58625], [127.003036, 37.589606], [126.997723, 37.589474], [126.996477, 37.588421], [126.993488, 37.588553], [126.98859, 37.589738], [126.985933, 37.591054], [126.984107, 37.593028], [126.983692, 37.596319], [126.987013, 37.596648], [126.989835, 37.598425], [126.988009, 37.604348], [126.989088, 37.60777], [126.988839, 37.611916], [126.984937, 37.61389], [126.982945, 37.619945], [126.981284, 37.621788], [126.981616, 37.626394], [126.978793, 37.626065], [126.977216, 37.628566]]]}}, {"type": "Feature", "properties": {"구분": "자치구", "자치구": "송파구"}, "geometry": {"type": "Polygon", "coordinates": [[[127.069039, 37.522281], [127.074933, 37.520899], [127.079666, 37.520768], [127.086391, 37.521623], [127.094361, 37.523992], [127.100837, 37.524848], [127.104822, 37.531232], [127.111712, 37.540643], [127.120596, 37.538142], [127.125328, 37.535707], [127.122505, 37.527546], [127.12126, 37.525309], [127.145337, 37.514647], [127.146748, 37.514187], [127.146665, 37.512805], [127.144589, 37.511554], [127.143261, 37.509514], [127.142099, 37.505763], [127.143261, 37.50267], [127.147329, 37.500695], [127.14982, 37.500432], [127.152227, 37.501682], [127.154054, 37.500366], [127.160862, 37.498853], [127.163519, 37.497471], [127.162024, 37.494048], [127.16219, 37.491613], [127.160447, 37.487796], [127.158952, 37.486151], [127.153971, 37.484835], [127.15148, 37.477464], [127.15148, 37.475621], [127.148574, 37.473844], [127.144174, 37.473713], [127.141102, 37.47062], [127.136287, 37.472133], [127.1328, 37.472594], [127.133049, 37.468909], [127.137532, 37.466474], [127.134793, 37.465092], [127.130808, 37.465092], [127.127321, 37.466737], [127.127321, 37.464236], [127.124415, 37.462393], [127.124415, 37.464433], [127.122671, 37.467592], [127.113788, 37.479636], [127.114369, 37.480755], [127.111131, 37.48569], [127.10781, 37.488586], [127.104323, 37.490758], [127.098844, 37.492995], [127.080496, 37.4978], [127.076511, 37.498589], [127.071945, 37.502209], [127.069288, 37.517148], [127.068624, 37.518135], [127.069039, 37.522281]]]}}, {"type": "Feature", "properties": {"구분": "자치구", "자치구": "양천구"}, "geometry": {"type": "Polygon", "coordinates": [[[126.824206, 37.537879], [126.828938, 37.539063], [126.830183, 37.542617], [126.831927, 37.541432], [126.832508, 37.538932], [126.835248, 37.539063], [126.837157, 37.534917], [126.836576, 37.533667], [126.842554, 37.523729], [126.851022, 37.525111], [126.866132, 37.52702], [126.865468, 37.533798], [126.8658, 37.538142], [126.864305, 37.541696], [126.866381, 37.548606], [126.872774, 37.544855], [126.876095, 37.544131], [126.882819, 37.545052], [126.88722, 37.540774], [126.888216, 37.540774], [126.889378, 37.540577], [126.893363, 37.533009], [126.893612, 37.53031], [126.892118, 37.527546], [126.890541, 37.527941], [126.889046, 37.525835], [126.883816, 37.523532], [126.88257, 37.522413], [126.881906, 37.519386], [126.881574, 37.513989], [126.880578, 37.511488], [126.875596, 37.505697], [126.874351, 37.502604], [126.871113, 37.502012], [126.867958, 37.502735], [126.865219, 37.502472], [126.864554, 37.503854], [126.86223, 37.503854], [126.860237, 37.507145], [126.857664, 37.506421], [126.855007, 37.507803], [126.852184, 37.507276], [126.850773, 37.506026], [126.847286, 37.505236], [126.846871, 37.502867], [126.842138, 37.502735], [126.84272, 37.501156], [126.838485, 37.499642], [126.834168, 37.502406], [126.831179, 37.505434], [126.826862, 37.5055], [126.826115, 37.507803], [126.826613, 37.510435], [126.825285, 37.513397], [126.827609, 37.516951], [126.82736, 37.520044], [126.830515, 37.523927], [126.829353, 37.526822], [126.827692, 37.527086], [126.823873, 37.532021], [126.824206, 37.537879]]]}}, {"type": "Feature", "properties": {"구분": "자치구", "자치구": "영등포구"}, "geometry": {"type": "Polygon", "coordinates": [[[126.891869, 37.547355], [126.902828, 37.541367], [126.908307, 37.539195], [126.931305, 37.534127], [126.936784, 37.533469], [126.945667, 37.526625], [126.948822, 37.524256], [126.950068, 37.520768], [126.952475, 37.517214], [126.94409, 37.514647], [126.934542, 37.51287], [126.928067, 37.513265], [126.929229, 37.510172], [126.927486, 37.509843], [126.923251, 37.499247], [126.921757, 37.494904], [126.914617, 37.493588], [126.905319, 37.482202], [126.902579, 37.482795], [126.898594, 37.486283], [126.895771, 37.493917], [126.895522, 37.5003], [126.895937, 37.504644], [126.892533, 37.508724], [126.881574, 37.513989], [126.881906, 37.519386], [126.88257, 37.522413], [126.883816, 37.523532], [126.889046, 37.525835], [126.890541, 37.527941], [126.892118, 37.527546], [126.893612, 37.53031], [126.893363, 37.533009], [126.889378, 37.540577], [126.888216, 37.540774], [126.887386, 37.543472], [126.891869, 37.547355]]]}}, {"type": "Feature", "properties": {"구분": "자치구", "자치구": "용산구"}, "geometry": {"type": "Polygon", "coordinates": [[[127.010674, 37.541169], [127.010425, 37.539063], [127.011587, 37.53676], [127.016901, 37.536102], [127.023044, 37.53235], [127.013995, 37.525045], [127.010259, 37.522018], [127.008183, 37.518793], [127.005859, 37.516885], [127.00013, 37.513923], [126.991496, 37.509909], [126.989503, 37.510896], [126.984605, 37.510699], [126.982197, 37.509317], [126.966672, 37.509975], [126.959532, 37.512476], [126.955547, 37.514713], [126.952475, 37.517214], [126.950068, 37.520768], [126.948822, 37.524256], [126.945667, 37.526625], [126.947162, 37.532153], [126.953389, 37.533469], [126.959283, 37.538997], [126.960612, 37.542683], [126.962272, 37.543538], [126.964015, 37.545842], [126.966008, 37.546895], [126.964514, 37.548672], [126.967834, 37.551304], [126.97431, 37.551107], [126.978627, 37.550317], [126.979292, 37.55216], [126.982612, 37.55058], [126.98585, 37.550251], [126.987511, 37.550975], [126.989918, 37.548672], [126.992409, 37.548606], [126.99739, 37.54446], [127.000628, 37.547158], [127.004779, 37.546829], [127.006357, 37.547553], [127.006938, 37.543407], [127.009346, 37.541037], [127.010674, 37.541169]]]}}, {"type": "Feature", "properties": {"구분": "자치구", "자치구": "은평구"}, "geometry": {"type": "Polygon", "coordinates": [[[126.973895, 37.629487], [126.971321, 37.627447], [126.961608, 37.62567], [126.958868, 37.622577], [126.954302, 37.622051], [126.95397, 37.61876], [126.952807, 37.616128], [126.951479, 37.614943], [126.952475, 37.613364], [126.953056, 37.609284], [126.951894, 37.605993], [126.952475, 37.605072], [126.949237, 37.605072], [126.946996, 37.602044], [126.944505, 37.602044], [126.943592, 37.600333], [126.942762, 37.595858], [126.935788, 37.59362], [126.931056, 37.590001], [126.929976, 37.587697], [126.930225, 37.585592], [126.92815, 37.584407], [126.925991, 37.584407], [126.924414, 37.581248], [126.917938, 37.580327], [126.91827, 37.582762], [126.914617, 37.583222], [126.905236, 37.574075], [126.903741, 37.573153], [126.900254, 37.575522], [126.897348, 37.578681], [126.895356, 37.579405], [126.891537, 37.582038], [126.884314, 37.588158], [126.887137, 37.590988], [126.889378, 37.590988], [126.887552, 37.58829], [126.889378, 37.585789], [126.893529, 37.585657], [126.895356, 37.586381], [126.899092, 37.585855], [126.901915, 37.587105], [126.901084, 37.589869], [126.90399, 37.592304], [126.903243, 37.594542], [126.903575, 37.596582], [126.90233, 37.600333], [126.904156, 37.601057], [126.90399, 37.607243], [126.902994, 37.610007], [126.905485, 37.615996], [126.907228, 37.616457], [126.909387, 37.619089], [126.908556, 37.621261], [126.910798, 37.623367], [126.911213, 37.625605], [126.908639, 37.629751], [126.912957, 37.633107], [126.912292, 37.635871], [126.913787, 37.63824], [126.914534, 37.641531], [126.909719, 37.643571], [126.910466, 37.64469], [126.915945, 37.641926], [126.923334, 37.642781], [126.927486, 37.644624], [126.930972, 37.647191], [126.936618, 37.647783], [126.939109, 37.649165], [126.942513, 37.653838], [126.94575, 37.655351], [126.949403, 37.656141], [126.949819, 37.654627], [126.953389, 37.652192], [126.95646, 37.652456], [126.958868, 37.649889], [126.959698, 37.646401], [126.962272, 37.645545], [126.964265, 37.640741], [126.966506, 37.64028], [126.970906, 37.635871], [126.970906, 37.633765], [126.973895, 37.629487]]]}}, {"type": "Feature", "properties": {"구분": "자치구", "자치구": "종로구"}, "geometry": {"type": "Polygon", "coordinates": [[[126.973895, 37.629487], [126.977216, 37.628566], [126.978793, 37.626065], [126.981616, 37.626394], [126.981284, 37.621788], [126.982945, 37.619945], [126.984937, 37.61389], [126.988839, 37.611916], [126.989088, 37.60777], [126.988009, 37.604348], [126.989835, 37.598425], [126.987013, 37.596648], [126.983692, 37.596319], [126.984107, 37.593028], [126.985933, 37.591054], [126.98859, 37.589738], [126.993488, 37.588553], [126.996477, 37.588421], [126.997723, 37.589474], [127.003036, 37.589606], [127.00453, 37.58625], [127.008017, 37.584144], [127.008931, 37.582498], [127.00918, 37.579274], [127.010923, 37.577628], [127.016818, 37.579405], [127.018478, 37.579076], [127.020388, 37.575786], [127.023958, 37.576049], [127.025286, 37.575259], [127.025452, 37.568941], [127.022546, 37.568941], [127.017897, 37.567033], [127.0037, 37.56677], [126.998802, 37.565914], [126.990998, 37.565322], [126.979873, 37.566441], [126.974974, 37.566375], [126.971155, 37.565388], [126.968748, 37.56315], [126.95563, 37.576049], [126.957872, 37.577957], [126.961774, 37.579669], [126.958785, 37.581906], [126.960528, 37.587171], [126.960445, 37.588685], [126.958453, 37.59237], [126.959283, 37.595463], [126.956211, 37.595726], [126.954883, 37.597635], [126.95563, 37.601847], [126.9548, 37.603821], [126.952475, 37.605072], [126.951894, 37.605993], [126.953056, 37.609284], [126.952475, 37.613364], [126.951479, 37.614943], [126.952807, 37.616128], [126.95397, 37.61876], [126.954302, 37.622051], [126.958868, 37.622577], [126.961608, 37.62567], [126.971321, 37.627447], [126.973895, 37.629487]]]}}, {"type": "Feature", "properties": {"구분": "자치구", "자치구": "중구"}, "geometry": {"type": "Polygon", "coordinates": [[[127.025452, 37.568941], [127.025701, 37.56236], [127.028773, 37.562163], [127.028358, 37.560188], [127.025784, 37.558346], [127.024954, 37.555055], [127.021716, 37.554726], [127.019557, 37.553213], [127.018893, 37.55058], [127.013746, 37.54571], [127.011753, 37.545249], [127.010674, 37.541169], [127.009346, 37.541037], [127.006938, 37.543407], [127.006357, 37.547553], [127.004779, 37.546829], [127.000628, 37.547158], [126.99739, 37.54446], [126.992409, 37.548606], [126.989918, 37.548672], [126.987511, 37.550975], [126.98585, 37.550251], [126.982612, 37.55058], [126.979292, 37.55216], [126.978627, 37.550317], [126.97431, 37.551107], [126.967834, 37.551304], [126.964514, 37.548672], [126.963766, 37.552554], [126.965178, 37.553607], [126.9636, 37.556042], [126.965676, 37.556503], [126.968997, 37.558477], [126.971654, 37.559201], [126.968748, 37.56315], [126.971155, 37.565388], [126.974974, 37.566375], [126.979873, 37.566441], [126.990998, 37.565322], [126.998802, 37.565914], [127.0037, 37.56677], [127.017897, 37.567033], [127.022546, 37.568941], [127.025452, 37.568941]]]}}, {"type": "Feature", "properties": {"구분": "자치구", "자치구": "중랑구"}, "geometry": {"type": "Polygon", "coordinates": [[[127.073522, 37.612837], [127.083236, 37.616259], [127.087968, 37.617444], [127.091289, 37.617049], [127.098263, 37.614285], [127.101916, 37.615338], [127.103659, 37.616983], [127.10781, 37.618036], [127.113456, 37.617839], [127.119184, 37.615009], [127.118769, 37.613364], [127.119683, 37.608889], [127.118769, 37.606125], [127.12043, 37.604808], [127.120098, 37.601781], [127.115947, 37.597174], [127.116196, 37.596187], [127.120513, 37.592238], [127.119932, 37.591185], [127.115448, 37.590527], [127.112626, 37.586381], [127.111463, 37.58184], [127.103576, 37.580985], [127.104905, 37.578945], [127.104822, 37.575522], [127.103161, 37.572956], [127.103078, 37.570784], [127.101584, 37.569731], [127.093281, 37.56677], [127.08556, 37.568546], [127.080662, 37.569073], [127.08033, 37.575193], [127.079085, 37.57855], [127.073273, 37.585921], [127.07153, 37.593423], [127.072194, 37.595397], [127.074601, 37.598293], [127.07485, 37.600004], [127.073854, 37.604019], [127.073522, 37.612837]]]}}, {"type": "Feature", "properties": {"구분": "하천", "이름": "한강"}, "geometry": {"type": "LineString", "coordinates": [[126.794982, 37.578023], [126.837987, 37.578023], [126.870034, 37.566967], [126.897016, 37.550975], [126.925991, 37.544986], [126.955962, 37.523005], [126.986016, 37.514976], [127.015988, 37.513002], [127.056004, 37.518004], [127.085975, 37.522018], [127.111962, 37.534983], [127.142016, 37.553015], [127.171987, 37.57697]]}}]}